NORAD_CAT_ID,OBJECT_NAME,OBJECT_TYPE,EPOCH,MEAN_MOTION,ECCENTRICITY,INCLINATION,RA_OF_ASC_NODE,ARG_OF_PERICENTER,MEAN_ANOMALY,BSTAR,MEAN_MOTION_DOT,MEAN_MOTION_DDOT,TLE_LINE0,TLE_LINE1,TLE_LINE2,SEMIMAJOR_AXIS,PERIOD,APOGEE,PERIGEE,DECAYED
51802.0,STARLINK-3557,PAYLOAD,2024-06-16 15:14:58,15.08844574,0.0001327,53.217,302.0252,91.0069,269.1075,0.00017775,2.542e-05,0.0,0 STARLINK-3557,1 51802U 22017AL  24168.63540310  .00002542  00000-0  17775-3 0  9994,2 51802  53.2170 302.0252 0001327  91.0069 269.1075 15.08844574128656,6917.866,95.437,540.649,538.813,0.0
51802.0,STARLINK-3557,PAYLOAD,2024-06-17 18:16:32,15.08833474,0.0001621,53.2185,296.9682,98.7127,261.4049,-3.7735e-06,-3.48e-06,0.0,0 STARLINK-3557,1 51802U 22017AL  24169.76148645 -.00000348  00000-0 -37735-5 0  9998,2 51802  53.2185 296.9682 0001621  98.7127 261.4049 15.08833474128828,6917.9,95.438,540.887,538.644,0.0
51802.0,STARLINK-3557,PAYLOAD,2024-06-18 14:56:33,15.08842923,0.0001514,53.2183,293.1045,92.694,267.4225,0.00060726,9.391e-05,0.0,0 STARLINK-3557,1 51802U 22017AL  24170.62260958  .00009391  00000-0  60726-3 0  9996,2 51802  53.2183 293.1045 0001514  92.6940 267.4225 15.08842923128950,6917.871,95.437,540.784,538.689,0.0
51802.0,STARLINK-3557,PAYLOAD,2024-06-19 13:11:57,15.08833234,0.0001323,53.217,288.9414,89.3719,270.7424,2.1229e-05,5e-07,0.0,0 STARLINK-3557,1 51802U 22017AL  24171.54997265  .00000050  00000-0  21229-4 0  9995,2 51802  53.2170 288.9414 0001323  89.3719 270.7424 15.08833234129092,6917.901,95.438,540.681,538.851,0.0
51802.0,STARLINK-3557,PAYLOAD,2024-06-20 14:38:07,15.08840807,0.0001303,53.2169,284.1801,86.9346,273.1795,7.0453e-05,8.34e-06,0.0,0 STARLINK-3557,1 51802U 22017AL  24172.60981146  .00000834  00000-0  70453-4 0  9997,2 51802  53.2169 284.1801 0001303  86.9346 273.1795 15.08840807129255,6917.878,95.438,540.644,538.842,0.0
51802.0,STARLINK-3557,PAYLOAD,2024-06-21 12:53:31,15.08839052,0.0001344,53.2174,280.0182,92.2096,267.905,0.00016258,2.3e-05,0.0,0 STARLINK-3557,1 51802U 22017AL  24173.53717381  .00002300  00000-0  16258-3 0  9990,2 51802  53.2174 280.0182 0001344  92.2096 267.9050 15.08839052129395,6917.883,95.438,540.678,538.819,0.0
51802.0,STARLINK-3557,PAYLOAD,2024-06-22 12:44:19,15.08835607,0.00013,53.2177,275.5589,87.1865,272.9276,-1.9163e-05,-5.93e-06,0.0,0 STARLINK-3557,1 51802U 22017AL  24174.53077740 -.00000593  00000-0 -19163-4 0  9992,2 51802  53.2177 275.5589 0001300  87.1865 272.9276 15.08835607129542,6917.894,95.438,540.658,538.859,0.0
51802.0,STARLINK-3557,PAYLOAD,2024-06-22 15:55:06,15.08831238,0.0001217,53.2177,274.9651,74.7234,285.3892,-4.6072e-05,-1.021e-05,0.0,0 STARLINK-3557,1 51802U 22017AL  24174.66326702 -.00001021  00000-0 -46072-4 0  9997,2 51802  53.2177 274.9651 0001217  74.7234 285.3892 15.08831238129564,6917.907,95.438,540.614,538.93,0.0
51802.0,STARLINK-3557,PAYLOAD,2024-06-23 12:35:06,15.0883508,0.0001631,53.2166,271.1062,38.1641,321.9466,0.00019124,2.756e-05,0.0,0 STARLINK-3557,1 51802U 22017AL  24175.52438229  .00002756  00000-0  19124-3 0  9992,2 51802  53.2166 271.1062 0001631  38.1641 321.9466 15.08835080129690,6917.895,95.438,540.889,538.632,0.0
51802.0,STARLINK-3557,PAYLOAD,2024-06-23 14:10:29,15.08842261,0.0001269,53.2182,270.8058,58.3448,301.7668,0.00019208,2.771e-05,0.0,0 STARLINK-3557,1 51802U 22017AL  24175.59061750  .00002771  00000-0  19208-3 0  9990,2 51802  53.2182 270.8058 0001269  58.3448 301.7668 15.08842261129706,6917.873,95.437,540.616,538.861,0.0
51802.0,STARLINK-3557,PAYLOAD,2024-06-24 10:50:30,15.08844763,0.0001203,53.2171,266.9336,77.824,282.2887,0.00031502,4.73e-05,0.0,0 STARLINK-3557,1 51802U 22017AL  24176.45173666  .00004730  00000-0  31502-3 0  9994,2 51802  53.2171 266.9336 0001203  77.8240 282.2887 15.08844763129832,6917.866,95.437,540.563,538.899,0.0
51802.0,STARLINK-3557,PAYLOAD,2024-06-24 14:01:16,15.08847318,0.0001233,53.2172,266.3388,77.6071,282.5059,0.00033679,5.077e-05,0.0,0 STARLINK-3557,1 51802U 22017AL  24176.58421552  .00005077  00000-0  33679-3 0  9990,2 51802  53.2172 266.3388 0001233  77.6071 282.5059 15.08847318129852,6917.858,95.437,540.576,538.87,0.0
51802.0,STARLINK-3557,PAYLOAD,2024-06-25 12:16:39,15.08846284,0.0001261,53.2169,262.176,78.1075,282.0058,4.3291e-06,-2.19e-06,0.0,0 STARLINK-3557,1 51802U 22017AL  24177.51157291 -.00000219  00000-0  43291-5 0  9997,2 51802  53.2169 262.1760 0001261  78.1075 282.0058 15.08846284129997,6917.861,95.437,540.599,538.854,0.0
51802.0,STARLINK-3557,PAYLOAD,2024-06-25 13:52:03,15.08846688,0.0001245,53.2178,261.8785,77.6861,282.427,2.3305e-06,-2.51e-06,0.0,0 STARLINK-3557,1 51802U 22017AL  24177.57781386 -.00000251  00000-0  23305-5 0  9991,2 51802  53.2178 261.8785 0001245  77.6861 282.4270 15.08846688130001,6917.86,95.437,540.586,538.864,0.0
51802.0,STARLINK-3557,PAYLOAD,2024-06-26 10:32:03,15.0884125,0.0001212,53.2171,258.0129,94.059,266.0541,2.2419e-05,6.9e-07,0.0,0 STARLINK-3557,1 51802U 22017AL  24178.43893306  .00000069  00000-0  22419-4 0  9993,2 51802  53.2171 258.0129 0001212  94.0590 266.0541 15.08841250130133,6917.877,95.437,540.58,538.903,0.0
51802.0,STARLINK-3557,PAYLOAD,2024-06-27 11:58:14,15.08833588,0.0001146,53.2166,253.2575,84.6321,275.4802,4.1665e-06,-2.22e-06,0.0,0 STARLINK-3557,1 51802U 22017AL  24179.49878248 -.00000222  00000-0  41665-5 0  9995,2 51802  53.2166 253.2575 0001146  84.6321 275.4802 15.08833588130298,6917.9,95.438,540.558,538.972,0.0
51802.0,STARLINK-3557,PAYLOAD,2024-06-27 16:44:23,15.08838693,0.0001171,53.2169,252.3648,84.7397,275.3729,4.7266e-05,4.64e-06,0.0,0 STARLINK-3557,1 51802U 22017AL  24179.69749845  .00000464  00000-0  47266-4 0  9996,2 51802  53.2169 252.3648 0001171  84.7397 275.3729 15.08838693130327,6917.884,95.438,540.559,538.939,0.0
51802.0,STARLINK-3557,PAYLOAD,2024-06-28 11:49:01,15.08841376,0.0001194,53.2163,248.7982,95.5346,264.5783,0.00014304,1.989e-05,0.0,0 STARLINK-3557,1 51802U 22017AL  24180.49237634  .00001989  00000-0  14304-3 0  9993,2 51802  53.2163 248.7982 0001194  95.5346 264.5783 15.08841376130445,6917.876,95.437,540.567,538.915,0.0
51802.0,STARLINK-3557,PAYLOAD,2024-06-28 14:59:46,15.08852252,0.000126,53.2169,248.2019,89.9718,270.1419,0.0002206,3.226e-05,0.0,0 STARLINK-3557,1 51802U 22017AL  24180.62484771  .00003226  00000-0  22060-3 0  9998,2 51802  53.2169 248.2019 0001260  89.9718 270.1419 15.08852252130467,6917.843,95.437,540.58,538.836,0.0
51802.0,STARLINK-3557,PAYLOAD,2024-06-29 11:39:48,15.08836388,0.0001149,53.2153,244.3358,98.9639,261.1483,-1.3361e-05,-5e-06,0.0,0 STARLINK-3557,1 51802U 22017AL  24181.48598191 -.00000500  00000-0 -13361-4 0  9994,2 51802  53.2153 244.3358 0001149  98.9639 261.1483 15.08836388130598,6917.891,95.438,540.551,538.962,0.0
51802.0,STARLINK-3557,PAYLOAD,2024-06-29 13:15:11,15.08837081,0.0001174,53.2151,244.0397,101.9209,258.1915,5.4923e-06,-2e-06,0.0,0 STARLINK-3557,1 51802U 22017AL  24181.55222180 -.00000200  00000-0  54923-5 0  9990,2 51802  53.2151 244.0397 0001174 101.9209 258.1915 15.08837081130601,6917.889,95.438,540.566,538.942,0.0
51802.0,STARLINK-3557,PAYLOAD,2024-06-29 21:12:07,15.08842894,0.0001212,53.2155,242.5518,89.2952,270.8179,7.0834e-05,8.4e-06,0.0,0 STARLINK-3557,1 51802U 22017AL  24181.88341946  .00000840  00000-0  70834-4 0  9995,2 51802  53.2155 242.5518 0001212  89.2952 270.8179 15.08842894130655,6917.872,95.437,540.575,538.898,0.0
51802.0,STARLINK-3557,PAYLOAD,2024-06-30 11:30:35,15.08840868,0.0001309,53.2152,239.8768,90.2613,269.8529,-2.0203e-05,-6.09e-06,0.0,0 STARLINK-3557,1 51802U 22017AL  24182.47958114 -.00000609  00000-0 -20203-4 0  9992,2 51802  53.2152 239.8768 0001309  90.2613 269.8529 15.08840868130747,6917.878,95.437,540.648,538.837,0.0
51802.0,STARLINK-3557,PAYLOAD,2024-06-30 21:02:54,15.08850046,0.0001334,53.2156,238.0927,89.8346,270.2799,9.0865e-05,1.159e-05,0.0,0 STARLINK-3557,1 51802U 22017AL  24182.87701539  .00001159  00000-0  90865-4 0  9993,2 51802  53.2156 238.0927 0001334  89.8346 270.2799 15.08850046130805,6917.85,95.437,540.638,538.792,0.0
51802.0,STARLINK-3557,PAYLOAD,2024-07-01 11:21:23,15.0883569,0.0001291,53.2154,235.4106,114.4175,245.6952,8.5929e-05,1.08e-05,0.0,0 STARLINK-3557,1 51802U 22017AL  24183.47318521  .00001080  00000-0  85929-4 0  9993,2 51802  53.2154 235.4106 0001291 114.4175 245.6952 15.08835690130894,6917.894,95.438,540.652,538.865,0.0
51802.0,STARLINK-3557,PAYLOAD,2024-07-01 12:56:46,15.08835719,0.0001356,53.2161,235.1137,112.6551,247.4584,8.4304e-05,1.054e-05,0.0,0 STARLINK-3557,1 51802U 22017AL  24183.53942526  .00001054  00000-0  84304-4 0  9995,2 51802  53.2161 235.1137 0001356 112.6551 247.4584 15.08835719130908,6917.893,95.438,540.697,538.82,0.0
51802.0,STARLINK-3557,PAYLOAD,2024-07-01 20:53:41,15.08842906,0.000135,53.2165,233.6289,108.2006,251.9133,0.00012987,1.78e-05,0.0,0 STARLINK-3557,1 51802U 22017AL  24183.87062017  .00001780  00000-0  12987-3 0  9993,2 51802  53.2165 233.6289 0001350 108.2006 251.9133 15.08842906130954,6917.872,95.437,540.67,538.803,0.0
51802.0,STARLINK-3557,PAYLOAD,2024-07-02 09:36:47,15.08839398,0.0001332,53.2157,231.2525,98.16,261.9543,0.00010009,1.305e-05,0.0,0 STARLINK-3557,1 51802U 22017AL  24184.40054402  .00001305  00000-0  10009-3 0  9998,2 51802  53.2157 231.2525 0001332  98.1600 261.9543 15.08839398131036,6917.882,95.438,540.669,538.826,0.0
51802.0,STARLINK-3557,PAYLOAD,2024-07-03 12:38:20,15.08841001,0.0001156,53.2155,226.1988,88.9661,271.1464,9.7074e-05,1.257e-05,0.0,0 STARLINK-3557,1 51802U 22017AL  24185.52662210  .00001257  00000-0  97074-4 0  9998,2 51802  53.2155 226.1988 0001156  88.9661 271.1464 15.08841001131206,6917.877,95.437,540.542,538.943,0.0
51802.0,STARLINK-3557,PAYLOAD,2024-07-04 02:56:48,15.08830233,0.0001157,53.2146,223.5216,86.466,273.6464,0.00015712,2.213e-05,0.0,0 STARLINK-3557,1 51802U 22017AL  24186.12278698  .00002213  00000-0  15712-3 0  9999,2 51802  53.2146 223.5216 0001157  86.4660 273.6464 15.08830233131295,6917.91,95.438,540.576,538.975,0.0
